[{"sensor":"S1","location":"Science Centre","area":"Govan","postcode":"G51 1EA","latitude":55.85923527,"longitude":-4.296185103,"Fixed sync frequency?":"x","sim_number":"***REMOVED***","Sensor batch":1,"Dec 2023 got connection?":null,"geometry":"L.point(-4.296185103, 55.85923527)"},{"sensor":"S2","location":"Pirie Park","area":"Govan","postcode":"G51 4AW","latitude":55.86046005,"longitude":-4.331298356,"Fixed sync frequency?":null,"sim_number":"***REMOVED***","Sensor batch":2,"Dec 2023 got connection?":null,"geometry":"L.point(-4.331298356, 55.86046005)"},{"sensor":"S3","location":"Knightswood Primary","area":"Knightswood","postcode":"G13 2XD","latitude":55.89053485,"longitude":-4.339117199,"Fixed sync frequency?":"x","sim_number":"***REMOVED***","Sensor batch":1,"Dec 2023 got connection?":"NO","geometry":"L.point(-4.339117199, 55.89053485)"},{"sensor":"S4","location":"UNI - Sports Centre","area":"City Centre","postcode":"G1 1RD","latitude":55.86155682,"longitude":-4.241780906,"Fixed sync frequency?":null,"sim_number":null,"Sensor batch":3,"Dec 2023 got connection?":null,"geometry":"L.point(-4.241780906, 55.86155682)"},{"sensor":"S6","location":"Eastbank Academy","area":"Shettleston","postcode":"G32 9AA","latitude":55.85085259,"longitude":-4.163031802,"Fixed sync frequency?":null,"sim_number":null,"Sensor batch":3,"Dec 2023 got connection?":null,"geometry":"L.point(-4.163031802, 55.85085259)"},{"sensor":"S7","location":"Notre Dame High School","area":"Hyndland","postcode":"G12 9LN","latitude":55.87807276,"longitude":-4.299187553,"Fixed sync frequency?":"x","sim_number":"***REMOVED***","Sensor batch":1,"Dec 2023 got connection?":"yes","geometry":"L.point(-4.299187553, 55.87807276)"},{"sensor":"S8","location":"Holyrood School","area":"Crosshill","postcode":"G42 8AU","latitude":55.83268644,"longitude":-4.252334569,"Fixed sync frequency?":null,"sim_number":null,"Sensor batch":3,"Dec 2023 got connection?":null,"geometry":"L.point(-4.252334569, 55.83268644)"},{"sensor":"S9","location":"St Mungo's Academy","area":"Gallowgate","postcode":"G40 2RA","latitude":55.85398715,"longitude":-4.220072023,"Fixed sync frequency?":null,"sim_number":null,"Sensor batch":3,"Dec 2023 got connection?":null,"geometry":"L.point(-4.220072023, 55.85398715)"},{"sensor":"S10","location":"St Cuthbert's","area":"Ruchill","postcode":"G20 9NY","latitude":55.88554813,"longitude":-4.269027838,"Fixed sync frequency?":null,"sim_number":"***REMOVED***","Sensor batch":2,"Dec 2023 got connection?":null,"geometry":"L.point(-4.269027838, 55.88554813)"},{"sensor":"S12","location":"St Maria Goretti","area":"Glasgow","postcode":"G33 3LB","latitude":55.86482551,"longitude":-4.161860648,"Fixed sync frequency?":null,"sim_number":"***REMOVED***","Sensor batch":2,"Dec 2023 got connection?":null,"geometry":"L.point(-4.161860648, 55.86482551)"},{"sensor":"S14","location":"Haghill Primary","area":"Haghill","postcode":"G31 3LS","latitude":55.86283898,"longitude":-4.204203338,"Fixed sync frequency?":null,"sim_number":"***REMOVED***","Sensor batch":2,"Dec 2023 got connection?":null,"geometry":"L.point(-4.204203338, 55.86283898)"},{"sensor":"S15","location":"Riverside","area":"Govan","postcode":"G51 2AQ","latitude":55.86072265,"longitude":-4.305477826,"Fixed sync frequency?":null,"sim_number":"***REMOVED***","Sensor batch":2,"Dec 2023 got connection?":null,"geometry":"L.point(-4.305477826, 55.86072265)"},{"sensor":"S16","location":"All Saints","area":"Robroyston","postcode":"G21 3EN","latitude":55.88601791,"longitude":-4.201537021,"Fixed sync frequency?":"x","sim_number":"***REMOVED***","Sensor batch":1,"Dec 2023 got connection?":null,"geometry":"L.point(-4.201537021, 55.88601791)"},{"sensor":"S17","location":"UNI - Royal College","area":"City Centre","postcode":"G1 1RD","latitude":55.86133286,"longitude":-4.247133623,"Fixed sync frequency?":null,"sim_number":null,"Sensor batch":0,"Dec 2023 got connection?":null,"geometry":"L.point(-4.247133623, 55.86133286)"},{"sensor":"S18","location":"St Pauls","area":"Pollock Park SW","postcode":"G53 5HW","latitude":55.82437779,"longitude":-4.338012549,"Fixed sync frequency?":"x","sim_number":"***REMOVED***","Sensor batch":1,"Dec 2023 got connection?":null,"geometry":"L.point(-4.338012549, 55.82437779)"},{"sensor":"S20","location":"Hillpark","area":"Pollock Park SE","postcode":"G43 2XA","latitude":55.81502763,"longitude":-4.298939755,"Fixed sync frequency?":"x","sim_number":"***REMOVED***","Sensor batch":1,"Dec 2023 got connection?":null,"geometry":"L.point(-4.298939755, 55.81502763"},{"sensor":"S21","location":"Bellahouston Academy","area":"Bellahouston","postcode":"G41 5QE","latitude":55.84801513,"longitude":-4.300538801,"Fixed sync frequency?":"x","sim_number":"***REMOVED***","Sensor batch":1,"Dec 2023 got connection?":null,"geometry":"L.point(-4.300538801, 55.84801513)"},{"sensor":"S22","location":"Ashpark Primary","area":"Thornliebank","postcode":"G46 8DQ","latitude":55.80778654,"longitude":-4.332602202,"Fixed sync frequency?":null,"sim_number":"***REMOVED***","Sensor batch":2,"Dec 2023 got connection?":null,"geometry":"L.point(-4.332602202, 55.80778654)"},{"sensor":"S23","location":"King's Park Secondary","area":"Kings Park","postcode":"G44 5BL","latitude":55.813333,"longitude":-4.24796461,"Fixed sync frequency?":null,"sim_number":null,"Sensor batch":3,"Dec 2023 got connection?":null,"geometry":"L.point(-4.24796461, 55.813333)"},{"sensor":"S24","location":"Thomas Aquinas","area":"Scotstoun","postcode":"G14 9PP","latitude":55.88099138,"longitude":-4.335672484,"Fixed sync frequency?":"x","sim_number":"***REMOVED***","Sensor batch":1,"Dec 2023 got connection?":"YES","geometry":"L.point(-4.335672484, 55.88099138)"},{"sensor":"S25","location":"John Paul Academy","area":"Summerston","postcode":"G23 5PD","latitude":55.90389768,"longitude":-4.295456828,"Fixed sync frequency?":"x","sim_number":"***REMOVED***","Sensor batch":1,"Dec 2023 got connection?":null,"geometry":"L.point(-4.295456828, 55.90389768)"},{"sensor":"S12002","location":"ME","area":"Rutherglen","postcode":"***REMOVED***","latitude":55.8259518,"longitude":-4.226293227,"Fixed sync frequency?":null,"sim_number":"WIFI","Sensor batch":0,"Dec 2023 got connection?":null,"geometry":"L.point(-4.226293227, 55.8259518)"},{"sensor":"S22002","location":"CRAIG","area":"Killearn","postcode":"***REMOVED***","latitude":56.04451237,"longitude":-4.37859782,"Fixed sync frequency?":null,"sim_number":"WIFI","Sensor batch":0,"Dec 2023 got connection?":null,"geometry":"L.point(-4.37859782, 56.04451237)"},{"sensor":"***REMOVED***","location":null,"area":"Don't know where these 4 map to exactly","postcode":null,"latitude":null,"longitude":null,"Fixed sync frequency?":null,"sim_number":null,"Sensor batch":null,"Dec 2023 got connection?":null,"geometry":"L.point()"},{"sensor":"***REMOVED***","location":null,"area":"but they are S6, S8, S9, and S23","postcode":null,"latitude":null,"longitude":null,"Fixed sync frequency?":null,"sim_number":null,"Sensor batch":null,"Dec 2023 got connection?":null,"geometry":"L.point()"}]